{
"type": "FeatureCollection",
"name": "historical_transmission_clipped",
"crs": { "type": "name", "properties": { "name": "urn:ogc:def:crs:OGC:1.3:CRS84" } },
"features": [
{ "type": "Feature", "properties": { "COUNTRY": "SDN", "CNTRY_NAME": "SUDAN", "VOLTAGE_KV": 60, "FROM_NM": "Khartoum North", "TO_NM": "Umm Durman", "STATUS": "Existing", "SOURCES": "WB map archive IBRD #32740; Jan 2004", "PROJECT_NM": null, "source_feature_id": "WB_AICD_000", "used_as_electrical_line": false, "review_action": "historical geometry only; operating state and rating unverified" }, "geometry": { "type": "LineString", "coordinates": [ [ 32.530300140380888, 15.636500358581529 ], [ 32.454898834228487, 15.644700050354032 ] ] } },
{ "type": "Feature", "properties": { "COUNTRY": "SDN", "CNTRY_NAME": "SUDAN", "VOLTAGE_KV": 60, "FROM_NM": "Umm Durman", "TO_NM": "Khartoum", "STATUS": "Existing", "SOURCES": "WB map archive IBRD #32740; Jan 2004", "PROJECT_NM": null, "source_feature_id": "WB_AICD_001", "used_as_electrical_line": false, "review_action": "historical geometry only; operating state and rating unverified" }, "geometry": { "type": "LineString", "coordinates": [ [ 32.454898834228487, 15.644700050354032 ], [ 32.536399841308622, 15.572500228881836 ] ] } },
{ "type": "Feature", "properties": { "COUNTRY": "SDN", "CNTRY_NAME": "SUDAN", "VOLTAGE_KV": 60, "FROM_NM": "Khartoum North", "TO_NM": "Khartoum", "STATUS": "Existing", "SOURCES": "WB map archive IBRD #32740; Jan 2004", "PROJECT_NM": null, "source_feature_id": "WB_AICD_002", "used_as_electrical_line": false, "review_action": "historical geometry only; operating state and rating unverified" }, "geometry": { "type": "LineString", "coordinates": [ [ 32.530300140380888, 15.636500358581529 ], [ 32.536399841308622, 15.572500228881836 ] ] } },
{ "type": "Feature", "properties": { "COUNTRY": "SDN", "CNTRY_NAME": "SUDAN", "VOLTAGE_KV": 220, "FROM_NM": "Khartoum", "TO_NM": "Rabak", "STATUS": "Existing", "SOURCES": "WB map archive IBRD #32740; Jan 2004", "PROJECT_NM": null, "source_feature_id": "WB_AICD_003", "used_as_electrical_line": false, "review_action": "historical geometry only; operating state and rating unverified" }, "geometry": { "type": "MultiLineString", "coordinates": [ [ [ 32.536399841308622, 15.572500228881836 ], [ 32.534416238525708, 15.565240228073485 ] ], [ [ 32.534416238525708, 15.565240228073485 ], [ 32.21908528841459, 14.411126626088056 ], [ 32.748699188232465, 13.178799629211468 ] ] ] } },
{ "type": "Feature", "properties": { "COUNTRY": "SDN", "CNTRY_NAME": "SUDAN", "VOLTAGE_KV": 220, "FROM_NM": "Rabak", "TO_NM": "Sennar junction", "STATUS": "Existing", "SOURCES": "WB map archive IBRD #32740; Jan 2004", "PROJECT_NM": null, "source_feature_id": "WB_AICD_004", "used_as_electrical_line": false, "review_action": "historical geometry only; operating state and rating unverified" }, "geometry": { "type": "MultiLineString", "coordinates": [ [ [ 32.75174871978578, 13.180245733388766 ], [ 33.566699981689439, 13.566699981689467 ] ], [ [ 32.748699188232465, 13.178799629211468 ], [ 32.75174871978578, 13.180245733388766 ] ] ] } },
{ "type": "Feature", "properties": { "COUNTRY": "SDN", "CNTRY_NAME": "SUDAN", "VOLTAGE_KV": 220, "FROM_NM": "Khartoum", "TO_NM": "Sid", "STATUS": "Existing", "SOURCES": "WB map archive IBRD #32740; Jan 2004", "PROJECT_NM": null, "source_feature_id": "WB_AICD_005", "used_as_electrical_line": false, "review_action": "historical geometry only; operating state and rating unverified" }, "geometry": { "type": "MultiLineString", "coordinates": [ [ [ 32.536399841308622, 15.572500228881836 ], [ 32.543343120315924, 15.563454851715441 ] ], [ [ 32.543343120315924, 15.563454851715441 ], [ 33.666698455810575, 14.100000381469705 ] ] ] } },
{ "type": "Feature", "properties": { "COUNTRY": "SDN", "CNTRY_NAME": "SUDAN", "VOLTAGE_KV": 220, "FROM_NM": "Sid", "TO_NM": "Sennar junction", "STATUS": "Existing", "SOURCES": "WB map archive IBRD #32740; Jan 2004", "PROJECT_NM": null, "source_feature_id": "WB_AICD_006", "used_as_electrical_line": false, "review_action": "historical geometry only; operating state and rating unverified" }, "geometry": { "type": "MultiLineString", "coordinates": [ [ [ 33.666698455810575, 14.100000381469705 ], [ 33.567025648129473, 13.568436788617788 ] ], [ [ 33.567025648129473, 13.568436788617788 ], [ 33.566699981689439, 13.566699981689467 ] ] ] } },
{ "type": "Feature", "properties": { "COUNTRY": "SDN", "CNTRY_NAME": "SUDAN", "VOLTAGE_KV": 60, "FROM_NM": "Sennar junction", "TO_NM": "Singa", "STATUS": "Existing", "SOURCES": "WB map archive IBRD #32740; Jan 2004", "PROJECT_NM": null, "source_feature_id": "WB_AICD_007", "used_as_electrical_line": false, "review_action": "historical geometry only; operating state and rating unverified" }, "geometry": { "type": "LineString", "coordinates": [ [ 33.565055221672985, 13.566699981689467 ], [ 33.595399214211753, 13.564221030000681 ], [ 33.93257501758368, 13.185926226217548 ], [ 33.934554428215996, 13.159099578857436 ] ] } },
{ "type": "Feature", "properties": { "COUNTRY": "SDN", "CNTRY_NAME": "SUDAN", "VOLTAGE_KV": 220, "FROM_NM": "Sennar junction", "TO_NM": "Roseires", "STATUS": "Existing", "SOURCES": "WB map archive IBRD #32740; Jan 2004", "PROJECT_NM": null, "source_feature_id": "WB_AICD_008", "used_as_electrical_line": false, "review_action": "historical geometry only; operating state and rating unverified" }, "geometry": { "type": "LineString", "coordinates": [ [ 33.934554428215996, 13.159099578857436 ], [ 34.402801513671875, 11.772199630737305 ] ] } },
{ "type": "Feature", "properties": { "COUNTRY": "SDN", "CNTRY_NAME": "SUDAN", "VOLTAGE_KV": 60, "FROM_NM": "Sid", "TO_NM": "El Fau", "STATUS": "Existing", "SOURCES": "WB map archive IBRD #32740; Jan 2004", "PROJECT_NM": null, "source_feature_id": "WB_AICD_009", "used_as_electrical_line": false, "review_action": "historical geometry only; operating state and rating unverified" }, "geometry": { "type": "MultiLineString", "coordinates": [ [ [ 33.672739958991684, 14.100453735464406 ], [ 34.333000183105469, 14.149999618530273 ] ], [ [ 33.666698455810575, 14.100000381469705 ], [ 33.672739958991684, 14.100453735464406 ] ] ] } },
{ "type": "Feature", "properties": { "COUNTRY": "SDN", "CNTRY_NAME": "SUDAN", "VOLTAGE_KV": 60, "FROM_NM": "El Fau", "TO_NM": "Gedaref", "STATUS": "Existing", "SOURCES": "WB map archive IBRD #32740; Jan 2004", "PROJECT_NM": null, "source_feature_id": "WB_AICD_010", "used_as_electrical_line": false, "review_action": "historical geometry only; operating state and rating unverified" }, "geometry": { "type": "LineString", "coordinates": [ [ 34.333000183105469, 14.149999618530273 ], [ 35.388301849365206, 14.047900199890151 ] ] } },
{ "type": "Feature", "properties": { "COUNTRY": "SDN", "CNTRY_NAME": "SUDAN", "VOLTAGE_KV": 60, "FROM_NM": "Gedaref", "TO_NM": "Khashm El Girba", "STATUS": "Existing", "SOURCES": "WB map archive IBRD #32740; Jan 2004", "PROJECT_NM": null, "source_feature_id": "WB_AICD_011", "used_as_electrical_line": false, "review_action": "historical geometry only; operating state and rating unverified" }, "geometry": { "type": "LineString", "coordinates": [ [ 35.388301849365206, 14.047900199890151 ], [ 35.906700134277386, 14.955599784851081 ] ] } },
{ "type": "Feature", "properties": { "COUNTRY": "SDN", "CNTRY_NAME": "SUDAN", "VOLTAGE_KV": 60, "FROM_NM": "Khashm El Girba", "TO_NM": "New Halfa", "STATUS": "Existing", "SOURCES": "WB map archive IBRD #32740; Jan 2004", "PROJECT_NM": null, "source_feature_id": "WB_AICD_012", "used_as_electrical_line": false, "review_action": "historical geometry only; operating state and rating unverified" }, "geometry": { "type": "LineString", "coordinates": [ [ 35.906700134277386, 14.955599784851081 ], [ 35.608100891113324, 15.326899528503461 ] ] } },
{ "type": "Feature", "properties": { "COUNTRY": "SDN", "CNTRY_NAME": "SUDAN", "VOLTAGE_KV": 60, "FROM_NM": "Khashm El Girba", "TO_NM": "Kassala", "STATUS": "Existing", "SOURCES": "WB map archive IBRD #32740; Jan 2004", "PROJECT_NM": null, "source_feature_id": "WB_AICD_013", "used_as_electrical_line": false, "review_action": "historical geometry only; operating state and rating unverified" }, "geometry": { "type": "LineString", "coordinates": [ [ 35.906700134277386, 14.955599784851081 ], [ 36.41049957275392, 15.429599761962898 ] ] } },
{ "type": "Feature", "properties": { "COUNTRY": "SDN", "CNTRY_NAME": "SUDAN", "VOLTAGE_KV": 60, "FROM_NM": null, "TO_NM": null, "STATUS": "Existing", "SOURCES": "WB map archive IBRD #32740; Jan 2004", "PROJECT_NM": null, "source_feature_id": "WB_AICD_014", "used_as_electrical_line": false, "review_action": "historical geometry only; operating state and rating unverified" }, "geometry": { "type": "MultiLineString", "coordinates": [ [ [ 32.532066530111109, 15.565710169756386 ], [ 32.534416238525708, 15.565240228073485 ] ], [ [ 32.534416238525708, 15.565240228073485 ], [ 32.543343120315924, 15.563454851715441 ] ], [ [ 32.543343120315924, 15.563454851715441 ], [ 32.594468601791206, 15.553229755420354 ], [ 33.670904338272351, 14.139822831866766 ], [ 33.670904338272351, 14.105501692442694 ], [ 33.672739958991684, 14.100453735464406 ] ], [ [ 33.672739958991684, 14.100453735464406 ], [ 33.689624959776367, 14.054019983306709 ], [ 33.596021852256314, 13.576644134954122 ], [ 33.571061023584249, 13.567283824202114 ], [ 33.56718333947731, 13.568391733946976 ] ] ] } },
{ "type": "Feature", "properties": { "COUNTRY": "SDN", "CNTRY_NAME": "SUDAN", "VOLTAGE_KV": 800, "FROM_NM": "Grand Inga", "TO_NM": "Cairo", "STATUS": "Missing", "SOURCES": "WEC, 2008: How to make the Grand Inga Hydropower Project happen for Africa", "PROJECT_NM": "Inga Northern Highway", "source_feature_id": "WB_AICD_015", "used_as_electrical_line": false, "review_action": "excluded hypothetical project" }, "geometry": { "type": "LineString", "coordinates": [ [ 23.067328055827247, 10.680947875968272 ], [ 25.31682165000641, 13.727117335709508 ], [ 28.228274872193172, 22.0 ] ] } },
{ "type": "Feature", "properties": { "COUNTRY": "SDN", "CNTRY_NAME": "Sudan", "VOLTAGE_KV": 230, "FROM_NM": "Shehedi", "TO_NM": "Gedaref", "STATUS": "Planned", "SOURCES": "Intl Water Power and dam Construction, 2006", "PROJECT_NM": "Ethiopia-Sudan Interconnector", "source_feature_id": "WB_AICD_017", "used_as_electrical_line": false, "review_action": "historically planned; requires later commissioning evidence" }, "geometry": { "type": "LineString", "coordinates": [ [ 36.102871371537333, 13.157892663943652 ], [ 35.388301849365206, 14.047900199890151 ] ] } },
{ "type": "Feature", "properties": { "COUNTRY": "SDN", "CNTRY_NAME": "SUDAN", "VOLTAGE_KV": 500, "FROM_NM": "Atbara", "TO_NM": "Khartoum", "STATUS": "Planned", "SOURCES": "Nile Basin Initiative WB map IBRD #35378, Nov 2007", "PROJECT_NM": "Merowe Hydropower Project", "source_feature_id": "WB_AICD_018", "used_as_electrical_line": false, "review_action": "historically planned; requires later commissioning evidence" }, "geometry": { "type": "LineString", "coordinates": [ [ 34.0, 17.700000762939453 ], [ 32.534168243408203, 15.588055610656738 ] ] } },
{ "type": "Feature", "properties": { "COUNTRY": "SDN", "CNTRY_NAME": "SUDAN", "VOLTAGE_KV": 500, "FROM_NM": "Merowe", "TO_NM": "Atbara", "STATUS": "Planned", "SOURCES": "Nile Basin Initiative WB map IBRD #35378, Nov 2007", "PROJECT_NM": "Merowe Hydropower Project", "source_feature_id": "WB_AICD_019", "used_as_electrical_line": false, "review_action": "historically planned; requires later commissioning evidence" }, "geometry": { "type": "LineString", "coordinates": [ [ 32.05, 18.6666667 ], [ 34.0, 17.700000762939453 ] ] } },
{ "type": "Feature", "properties": { "COUNTRY": "SDN", "CNTRY_NAME": "SUDAN", "VOLTAGE_KV": 220, "FROM_NM": "Merowe", "TO_NM": "Port Sudan", "STATUS": "Planned", "SOURCES": "Nile Basin Initiative WB map IBRD #35378, Nov 2007", "PROJECT_NM": "Merowe Hydropower Project", "source_feature_id": "WB_AICD_020", "used_as_electrical_line": false, "review_action": "historically planned; requires later commissioning evidence" }, "geometry": { "type": "LineString", "coordinates": [ [ 34.0, 17.700000762939453 ], [ 37.180599314681679, 19.593638676022184 ] ] } },
{ "type": "Feature", "properties": { "COUNTRY": "SDN", "CNTRY_NAME": "SUDAN", "VOLTAGE_KV": 220, "FROM_NM": "Atbara", "TO_NM": "Abu Hamad", "STATUS": "Planned", "SOURCES": "Nile Basin Initiative WB map IBRD #35378, Nov 2007", "PROJECT_NM": "Merowe Hydropower Project", "source_feature_id": "WB_AICD_021", "used_as_electrical_line": false, "review_action": "historically planned; requires later commissioning evidence" }, "geometry": { "type": "LineString", "coordinates": [ [ 34.0, 17.700000762939453 ], [ 33.5666667, 18.79166665 ], [ 33.3333333, 19.5333333 ] ] } },
{ "type": "Feature", "properties": { "COUNTRY": "SDN", "CNTRY_NAME": "SUDAN", "VOLTAGE_KV": 500, "FROM_NM": "Merowe", "TO_NM": "Khartoum", "STATUS": "Planned", "SOURCES": "Nile Basin Initiative WB map IBRD #35378, Nov 2007", "PROJECT_NM": "Merowe Hydropower Project", "source_feature_id": "WB_AICD_022", "used_as_electrical_line": false, "review_action": "historically planned; requires later commissioning evidence" }, "geometry": { "type": "LineString", "coordinates": [ [ 32.05, 18.6666667 ], [ 32.527336903389312, 15.599468677429593 ] ] } },
{ "type": "Feature", "properties": { "COUNTRY": "SDN", "CNTRY_NAME": "SUDAN", "VOLTAGE_KV": 220, "FROM_NM": "Merowe", "TO_NM": "Dongola", "STATUS": "Planned", "SOURCES": "Nile Basin Initiative WB map IBRD #35378, Nov 2007", "PROJECT_NM": "Merowe Hydropower Project", "source_feature_id": "WB_AICD_023", "used_as_electrical_line": false, "review_action": "historically planned; requires later commissioning evidence" }, "geometry": { "type": "LineString", "coordinates": [ [ 32.05, 18.6666667 ], [ 31.840127376393831, 18.463527578302514 ], [ 31.492939581434289, 17.96009272747844 ], [ 30.95, 18.05 ], [ 30.609232887941669, 18.349479211826594 ], [ 30.431807519605083, 18.957620829164863 ], [ 30.408054595915885, 19.168748350269436 ] ] } },
{ "type": "Feature", "properties": { "COUNTRY": "SDN", "CNTRY_NAME": "SUDAN", "VOLTAGE_KV": 220, "FROM_NM": "Dongola", "TO_NM": "Low Dal", "STATUS": "Planned", "SOURCES": "Nile Basin Initiative WB map IBRD #35378, Nov 2007", "PROJECT_NM": "Merowe Hydropower Project", "source_feature_id": "WB_AICD_025", "used_as_electrical_line": false, "review_action": "historically planned; requires later commissioning evidence" }, "geometry": { "type": "LineString", "coordinates": [ [ 30.9287, 21.3731 ], [ 30.337572166688293, 20.854920418434364 ], [ 30.244727159179828, 19.9764350550312 ], [ 30.408054595915885, 19.168748350269436 ] ] } },
{ "type": "Feature", "properties": { "COUNTRY": "SDN", "CNTRY_NAME": "SUDAN", "VOLTAGE_KV": 220, "FROM_NM": "Dal Low", "TO_NM": "Aswan", "STATUS": "Planned", "SOURCES": null, "PROJECT_NM": null, "source_feature_id": "WB_AICD_026", "used_as_electrical_line": false, "review_action": "historically planned; requires later commissioning evidence" }, "geometry": { "type": "LineString", "coordinates": [ [ 30.9287, 21.3731 ], [ 31.383721891176688, 22.0 ] ] } },
{ "type": "Feature", "properties": { "COUNTRY": "SDN", "CNTRY_NAME": "Sudan", "VOLTAGE_KV": 230, "FROM_NM": "Singa", "TO_NM": "Gedaref", "STATUS": "Existing", "SOURCES": "Nile Basin Initiative WB map #35378", "PROJECT_NM": "Ethiopia-Sudan Interconnector", "source_feature_id": "WB_AICD_027", "used_as_electrical_line": false, "review_action": "historical geometry only; operating state and rating unverified" }, "geometry": { "type": "LineString", "coordinates": [ [ 33.934554428215996, 13.159099578857436 ], [ 34.627805257073646, 13.436187509615809 ], [ 35.388301849365206, 14.047900199890151 ] ] } },
{ "type": "Feature", "properties": { "COUNTRY": "SDN", "CNTRY_NAME": "SUDAN", "VOLTAGE_KV": 220, "FROM_NM": "Sennar junction", "TO_NM": "Roseires", "STATUS": "Existing", "SOURCES": "WB map archive IBRD #32740; Jan 2004", "PROJECT_NM": null, "source_feature_id": "WB_AICD_028", "used_as_electrical_line": false, "review_action": "historical geometry only; operating state and rating unverified" }, "geometry": { "type": "LineString", "coordinates": [ [ 33.566699981689439, 13.566699981689467 ], [ 33.934554428215996, 13.159099578857436 ] ] } },
{ "type": "Feature", "properties": { "COUNTRY": "SDN", "CNTRY_NAME": "SUDAN", "VOLTAGE_KV": 60, "FROM_NM": null, "TO_NM": null, "STATUS": "Existing", "SOURCES": "WB map archive IBRD #32740; Jan 2004", "PROJECT_NM": null, "source_feature_id": "WB_AICD_029", "used_as_electrical_line": false, "review_action": "historical geometry only; operating state and rating unverified" }, "geometry": { "type": "MultiLineString", "coordinates": [ [ [ 33.56718333947731, 13.568391733946976 ], [ 33.567025648129473, 13.568436788617788 ] ], [ [ 33.567025648129473, 13.568436788617788 ], [ 33.527379573408254, 13.579764238538154 ], [ 32.769194402495344, 13.22095232637777 ], [ 32.75174871978578, 13.180245733388766 ] ], [ [ 32.75174871978578, 13.180245733388766 ], [ 32.750473780991342, 13.177270876201689 ] ] ] } }
]
}
