{
"type": "FeatureCollection",
"name": "plants",
"crs": { "type": "name", "properties": { "name": "urn:ogc:def:crs:OGC:1.3:CRS84" } },
"features": [
{ "type": "Feature", "properties": { "plant_id": "merowe", "name": "Merowe", "bus": "Merowe", "carrier": "hydro", "p_nom_mw": 1250.0, "available_mw_2024": "1250", "availability_basis": "reported available interpreted as full power capability", "marginal_cost_usd_mwh": 5, "wri_location_id": "WRI1023179", "source_id": "WB_STATUS_2024", "source_pdf_page": 11, "notes": "Energy budget assumed separately", "longitude": 32.05, "latitude": 18.6667, "coordinate_quality": "historical WRI location match; unverified plant footprint", "wri_capacity_mw_reference_only": 1250.0 }, "geometry": { "type": "Point", "coordinates": [ 32.05, 18.6667 ] } },
{ "type": "Feature", "properties": { "plant_id": "kosti", "name": "Kosti / Um Dabaker", "bus": "Kosti", "carrier": "oil", "p_nom_mw": 500.0, "available_mw_2024": "125", "availability_basis": "reported one unit operating", "marginal_cost_usd_mwh": 150, "wri_location_id": "", "source_id": "WB_STATUS_2024", "source_pdf_page": 11, "notes": "500 MW report basis; other sources may quote 520 MW", "longitude": 32.66, "latitude": 13.17, "coordinate_quality": "regional bus proxy; NOT a known plant location", "wri_capacity_mw_reference_only": null }, "geometry": { "type": "Point", "coordinates": [ 32.66, 13.17 ] } },
{ "type": "Feature", "properties": { "plant_id": "garri12", "name": "Garri 1 and 2", "bus": "Khartoum", "carrier": "oil", "p_nom_mw": 469.0, "available_mw_2024": "0", "availability_basis": "reported shut down", "marginal_cost_usd_mwh": 130, "wri_location_id": "WRI1023169", "source_id": "WB_STATUS_2024", "source_pdf_page": 11, "notes": "El Jaili WRI location proxy for complex; liquid fuel CCGT rather than domestic natural gas", "longitude": 32.692, "latitude": 16.12, "coordinate_quality": "historical WRI location match; unverified plant footprint", "wri_capacity_mw_reference_only": 319.0 }, "geometry": { "type": "Point", "coordinates": [ 32.692, 16.12 ] } },
{ "type": "Feature", "properties": { "plant_id": "garri4", "name": "Garri 4", "bus": "Khartoum", "carrier": "coal", "p_nom_mw": 110.0, "available_mw_2024": "0", "availability_basis": "reported shut down", "marginal_cost_usd_mwh": 100, "wri_location_id": "WRI1023169", "source_id": "WB_STATUS_2024", "source_pdf_page": 11, "notes": "Coal/SC label follows report; verify petroleum coke or fuel details", "longitude": 32.692, "latitude": 16.12, "coordinate_quality": "historical WRI location match; unverified plant footprint", "wri_capacity_mw_reference_only": 319.0 }, "geometry": { "type": "Point", "coordinates": [ 32.692, 16.12 ] } },
{ "type": "Feature", "properties": { "plant_id": "bahri_st", "name": "Mahmoud Sharif steam", "bus": "Khartoum", "carrier": "oil", "p_nom_mw": 380.0, "available_mw_2024": "0", "availability_basis": "reported shut down", "marginal_cost_usd_mwh": 160, "wri_location_id": "WRI1023173", "source_id": "WB_STATUS_2024", "source_pdf_page": 11, "notes": "Khartoum North complex location; separate steam and gas turbines", "longitude": 32.563, "latitude": 15.65, "coordinate_quality": "historical WRI location match; unverified plant footprint", "wri_capacity_mw_reference_only": 351.0 }, "geometry": { "type": "Point", "coordinates": [ 32.563, 15.65 ] } },
{ "type": "Feature", "properties": { "plant_id": "bahri_gt", "name": "Mahmoud Sharif gas turbine", "bus": "Khartoum", "carrier": "oil", "p_nom_mw": 150.0, "available_mw_2024": "0", "availability_basis": "reported shut down", "marginal_cost_usd_mwh": 220, "wri_location_id": "WRI1023173", "source_id": "WB_STATUS_2024", "source_pdf_page": 11, "notes": "Liquid fuel gas turbine; no gas infrastructure assumed", "longitude": 32.563, "latitude": 15.65, "coordinate_quality": "historical WRI location match; unverified plant footprint", "wri_capacity_mw_reference_only": 351.0 }, "geometry": { "type": "Point", "coordinates": [ 32.563, 15.65 ] } },
{ "type": "Feature", "properties": { "plant_id": "roseires", "name": "Roseires", "bus": "Roseires", "carrier": "hydro", "p_nom_mw": 280.0, "available_mw_2024": "280", "availability_basis": "reported available interpreted as full power capability", "marginal_cost_usd_mwh": 5, "wri_location_id": "WRI1023183", "source_id": "WB_STATUS_2024", "source_pdf_page": 11, "notes": "WRI older capacity not used", "longitude": 34.3882, "latitude": 11.7988, "coordinate_quality": "historical WRI location match; unverified plant footprint", "wri_capacity_mw_reference_only": 233.6 }, "geometry": { "type": "Point", "coordinates": [ 34.3882, 11.7988 ] } },
{ "type": "Feature", "properties": { "plant_id": "port_barge", "name": "Port Sudan Turkish barge", "bus": "PortSudan", "carrier": "oil", "p_nom_mw": 35.0, "available_mw_2024": "35", "availability_basis": "reported available but intermittent payments", "marginal_cost_usd_mwh": 200, "wri_location_id": "", "source_id": "WB_STATUS_2024", "source_pdf_page": 11, "notes": "Port city coordinate proxy; continuous availability is optimistic", "longitude": 37.22, "latitude": 19.62, "coordinate_quality": "regional bus proxy; NOT a known plant location", "wri_capacity_mw_reference_only": null }, "geometry": { "type": "Point", "coordinates": [ 37.22, 19.62 ] } },
{ "type": "Feature", "properties": { "plant_id": "jabal_awlia", "name": "Jabal Awlia", "bus": "Sennar", "carrier": "hydro", "p_nom_mw": 30.4, "available_mw_2024": "0", "availability_basis": "reported unavailable", "marginal_cost_usd_mwh": 5, "wri_location_id": "WRI1023167", "source_id": "WB_STATUS_2024", "source_pdf_page": 12, "notes": "Aggregated southern connection; two WRI 15.2 MW entries not added twice", "longitude": 32.4649, "latitude": 15.2396, "coordinate_quality": "historical WRI location match; unverified plant footprint", "wri_capacity_mw_reference_only": 15.2 }, "geometry": { "type": "Point", "coordinates": [ 32.4649, 15.2396 ] } },
{ "type": "Feature", "properties": { "plant_id": "sennar", "name": "Sinnar / Sennar", "bus": "Sennar", "carrier": "hydro", "p_nom_mw": 15.0, "available_mw_2024": "7.5", "availability_basis": "reported one generator available", "marginal_cost_usd_mwh": 5, "wri_location_id": "WRI1023184", "source_id": "WB_STATUS_2024", "source_pdf_page": 12, "notes": "", "longitude": 33.6333, "latitude": 13.5667, "coordinate_quality": "historical WRI location match; unverified plant footprint", "wri_capacity_mw_reference_only": 15.0 }, "geometry": { "type": "Point", "coordinates": [ 33.6333, 13.5667 ] } },
{ "type": "Feature", "properties": { "plant_id": "khashm", "name": "Khashm El Girba", "bus": "Kassala", "carrier": "hydro", "p_nom_mw": 17.8, "available_mw_2024": "7.8", "availability_basis": "reported available MW", "marginal_cost_usd_mwh": 5, "wri_location_id": "WRI1023174", "source_id": "WB_STATUS_2024", "source_pdf_page": 12, "notes": "", "longitude": 35.9083, "latitude": 14.9222, "coordinate_quality": "historical WRI location match; unverified plant footprint", "wri_capacity_mw_reference_only": 11.01 }, "geometry": { "type": "Point", "coordinates": [ 35.9083, 14.9222 ] } },
{ "type": "Feature", "properties": { "plant_id": "el_obeid", "name": "El Obeid diesel", "bus": "ElObeid", "carrier": "diesel", "p_nom_mw": 12.7, "available_mw_2024": "0", "availability_basis": "reported out of service", "marginal_cost_usd_mwh": 260, "wri_location_id": "WRI1023170", "source_id": "WB_STATUS_2024", "source_pdf_page": 12, "notes": "", "longitude": 30.2167, "latitude": 13.1833, "coordinate_quality": "historical WRI location match; unverified plant footprint", "wri_capacity_mw_reference_only": 14.3 }, "geometry": { "type": "Point", "coordinates": [ 30.2167, 13.1833 ] } },
{ "type": "Feature", "properties": { "plant_id": "upper_atbara", "name": "Setit and Upper Atbara", "bus": "Gedaref", "carrier": "hydro", "p_nom_mw": 320.0, "available_mw_2024": "320", "availability_basis": "reported available interpreted as full power capability", "marginal_cost_usd_mwh": 5, "wri_location_id": "", "source_id": "WB_STATUS_2024", "source_pdf_page": 12, "notes": "South follows report page 7 prose; annex says North; unresolved contradiction", "longitude": 35.38, "latitude": 14.03, "coordinate_quality": "regional bus proxy; NOT a known plant location", "wri_capacity_mw_reference_only": null }, "geometry": { "type": "Point", "coordinates": [ 35.38, 14.03 ] } },
{ "type": "Feature", "properties": { "plant_id": "el_fasher", "name": "Al Fasir diesel", "bus": "ElFasher", "carrier": "diesel", "p_nom_mw": 31.0, "available_mw_2024": "0", "availability_basis": "reported destroyed", "marginal_cost_usd_mwh": 260, "wri_location_id": "", "source_id": "WB_STATUS_2024", "source_pdf_page": 13, "notes": "", "longitude": 25.35, "latitude": 13.63, "coordinate_quality": "regional bus proxy; NOT a known plant location", "wri_capacity_mw_reference_only": null }, "geometry": { "type": "Point", "coordinates": [ 25.35, 13.63 ] } },
{ "type": "Feature", "properties": { "plant_id": "nyala", "name": "Nyala diesel", "bus": "Nyala", "carrier": "diesel", "p_nom_mw": 10.0, "available_mw_2024": "", "availability_basis": "partial availability not quantified in source", "marginal_cost_usd_mwh": 260, "wri_location_id": "WRI1023180", "source_id": "WB_STATUS_2024", "source_pdf_page": 13, "notes": "Model applies configurable 50 percent assumption", "longitude": 24.8833, "latitude": 12.05, "coordinate_quality": "historical WRI location match; unverified plant footprint", "wri_capacity_mw_reference_only": 15.5 }, "geometry": { "type": "Point", "coordinates": [ 24.8833, 12.05 ] } },
{ "type": "Feature", "properties": { "plant_id": "geneina", "name": "El Ginena diesel", "bus": "ElGeneina", "carrier": "diesel", "p_nom_mw": 10.0, "available_mw_2024": "", "availability_basis": "partial availability not quantified in source", "marginal_cost_usd_mwh": 260, "wri_location_id": "", "source_id": "WB_STATUS_2024", "source_pdf_page": 13, "notes": "Model applies configurable 50 percent assumption", "longitude": 22.45, "latitude": 13.45, "coordinate_quality": "regional bus proxy; NOT a known plant location", "wri_capacity_mw_reference_only": null }, "geometry": { "type": "Point", "coordinates": [ 22.45, 13.45 ] } },
{ "type": "Feature", "properties": { "plant_id": "kadugli", "name": "Kadogli diesel", "bus": "Kadugli", "carrier": "diesel", "p_nom_mw": 8.0, "available_mw_2024": "", "availability_basis": "partial availability not quantified in source", "marginal_cost_usd_mwh": 260, "wri_location_id": "", "source_id": "WB_STATUS_2024", "source_pdf_page": 13, "notes": "Model applies configurable 50 percent assumption", "longitude": 29.72, "latitude": 11.01, "coordinate_quality": "regional bus proxy; NOT a known plant location", "wri_capacity_mw_reference_only": null }, "geometry": { "type": "Point", "coordinates": [ 29.72, 11.01 ] } },
{ "type": "Feature", "properties": { "plant_id": "nahud", "name": "El Nohod diesel", "bus": "EnNahud", "carrier": "diesel", "p_nom_mw": 8.4, "available_mw_2024": "", "availability_basis": "partial availability not quantified in source", "marginal_cost_usd_mwh": 260, "wri_location_id": "", "source_id": "WB_STATUS_2024", "source_pdf_page": 13, "notes": "Model applies configurable 50 percent assumption", "longitude": 28.43, "latitude": 12.69, "coordinate_quality": "regional bus proxy; NOT a known plant location", "wri_capacity_mw_reference_only": null }, "geometry": { "type": "Point", "coordinates": [ 28.43, 12.69 ] } },
{ "type": "Feature", "properties": { "plant_id": "ed_daein", "name": "El Diain diesel", "bus": "EdDaein", "carrier": "diesel", "p_nom_mw": 7.5, "available_mw_2024": "", "availability_basis": "partial availability not quantified in source", "marginal_cost_usd_mwh": 260, "wri_location_id": "", "source_id": "WB_STATUS_2024", "source_pdf_page": 13, "notes": "Model applies configurable 50 percent assumption", "longitude": 26.13, "latitude": 11.46, "coordinate_quality": "regional bus proxy; NOT a known plant location", "wri_capacity_mw_reference_only": null }, "geometry": { "type": "Point", "coordinates": [ 26.13, 11.46 ] } },
{ "type": "Feature", "properties": { "plant_id": "zalingei", "name": "Zalingei diesel", "bus": "Zalingei", "carrier": "diesel", "p_nom_mw": 2.6, "available_mw_2024": "", "availability_basis": "partial availability not quantified in source", "marginal_cost_usd_mwh": 260, "wri_location_id": "", "source_id": "WB_STATUS_2024", "source_pdf_page": 13, "notes": "Model applies configurable 50 percent assumption", "longitude": 23.47, "latitude": 12.91, "coordinate_quality": "regional bus proxy; NOT a known plant location", "wri_capacity_mw_reference_only": null }, "geometry": { "type": "Point", "coordinates": [ 23.47, 12.91 ] } }
]
}
